{
  "type": "FeatureCollection",
  "features": [
    {
      "type": "Feature",
      "properties": {
        "norad_id": 33886,
        "name": "IRIDIUM 33 DEB",
        "group": "iridium-33-debris",
        "lat": -4.688691790326795,
        "lon": 70.63228965261172,
        "alt_km": 773.7104117349872,
        "timestamp": "2025-12-03T22:42:33.017657+00:00",
        "meta_object_name": "IRIDIUM 33 DEB",
        "meta_object_id": "1997-051BF",
        "meta_epoch": "2025-12-03T07:58:37.156800",
        "meta_mean_motion": 14.36032892,
        "meta_eccentricity": 0.0012062,
        "meta_inclination": 86.3832,
        "meta_ra_of_asc_node": 71.1878,
        "meta_arg_of_pericenter": 277.8221,
        "meta_mean_anomaly": 146.0866,
        "meta_ephemeris_type": 0,
        "meta_classification_type": "U",
        "meta_norad_cat_id": 33886,
        "meta_element_set_no": 999,
        "meta_rev_at_epoch": 87917,
        "meta_bstar": 0.00031822,
        "meta_mean_motion_dot": 9.45e-06,
        "meta_mean_motion_ddot": 0,
        "tle_line1": "1 33886U 97051BF  25337.33237450  .00000945  00000+0  31822-3 0  9993",
        "tle_line2": "2 33886  86.3832  71.1878 0012062 277.8221 146.0866 14.36032892879173"
      },
      "geometry": {
        "type": "Point",
        "coordinates": [
          70.63228965261172,
          -4.688691790326795
        ]
      }
    },
    {
      "type": "Feature",
      "properties": {
        "norad_id": 33887,
        "name": "IRIDIUM 33 DEB",
        "group": "iridium-33-debris",
        "lat": -74.08942627061009,
        "lon": -159.7163283892201,
        "alt_km": 772.3631746075243,
        "timestamp": "2025-12-03T22:42:33.017666+00:00",
        "meta_object_name": "IRIDIUM 33 DEB",
        "meta_object_id": "1997-051BG",
        "meta_epoch": "2025-12-03T08:13:03.824832",
        "meta_mean_motion": 14.37207474,
        "meta_eccentricity": 0.0004033,
        "meta_inclination": 86.3052,
        "meta_ra_of_asc_node": 7.4418,
        "meta_arg_of_pericenter": 271.7393,
        "meta_mean_anomaly": 100.6475,
        "meta_ephemeris_type": 0,
        "meta_classification_type": "U",
        "meta_norad_cat_id": 33887,
        "meta_element_set_no": 999,
        "meta_rev_at_epoch": 88030,
        "meta_bstar": 0.00021393,
        "meta_mean_motion_dot": 6.56e-06,
        "meta_mean_motion_ddot": 0,
        "tle_line1": "1 33887U 97051BG  25337.34240538  .00000656  00000+0  21393-3 0  9997",
        "tle_line2": "2 33887  86.3052   7.4418 0004033 271.7393 100.6475 14.37207474880302"
      },
      "geometry": {
        "type": "Point",
        "coordinates": [
          -159.7163283892201,
          -74.08942627061009
        ]
      }
    },
    {
      "type": "Feature",
      "properties": {
        "norad_id": 33953,
        "name": "IRIDIUM 33 DEB",
        "group": "iridium-33-debris",
        "lat": -79.33188315722022,
        "lon": -102.7973093385585,
        "alt_km": 724.7273879441382,
        "timestamp": "2025-12-03T22:42:33.017676+00:00",
        "meta_object_name": "IRIDIUM 33 DEB",
        "meta_object_id": "1997-051BN",
        "meta_epoch": "2025-12-03T05:09:00.715968",
        "meta_mean_motion": 14.55157442,
        "meta_eccentricity": 0.0018449,
        "meta_inclination": 86.3853,
        "meta_ra_of_asc_node": 57.9126,
        "meta_arg_of_pericenter": 131.9522,
        "meta_mean_anomaly": 257.615,
        "meta_ephemeris_type": 0,
        "meta_classification_type": "U",
        "meta_norad_cat_id": 33953,
        "meta_element_set_no": 999,
        "meta_rev_at_epoch": 88165,
        "meta_bstar": 0.0017324,
        "meta_mean_motion_dot": 7.523e-05,
        "meta_mean_motion_ddot": 0,
        "tle_line1": "1 33953U 97051BN  25337.21459162  .00007523  00000+0  17324-2 0  9990",
        "tle_line2": "2 33953  86.3853  57.9126 0018449 131.9522 257.6150 14.55157442881659"
      },
      "geometry": {
        "type": "Point",
        "coordinates": [
          -102.7973093385585,
          -79.33188315722022
        ]
      }
    },
    {
      "type": "Feature",
      "properties": {
        "norad_id": 33960,
        "name": "IRIDIUM 33 DEB",
        "group": "iridium-33-debris",
        "lat": -29.257918929274382,
        "lon": 115.76167706738121,
        "alt_km": 625.026719804896,
        "timestamp": "2025-12-03T22:42:33.017686+00:00",
        "meta_object_name": "IRIDIUM 33 DEB",
        "meta_object_id": "1997-051BV",
        "meta_epoch": "2025-12-03T07:47:15.986976",
        "meta_mean_motion": 14.84371452,
        "meta_eccentricity": 0.0007026,
        "meta_inclination": 86.2527,
        "meta_ra_of_asc_node": 293.9503,
        "meta_arg_of_pericenter": 74.7434,
        "meta_mean_anomaly": 54.2273,
        "meta_ephemeris_type": 0,
        "meta_classification_type": "U",
        "meta_norad_cat_id": 33960,
        "meta_element_set_no": 999,
        "meta_rev_at_epoch": 88727,
        "meta_bstar": 0.0041779,
        "meta_mean_motion_dot": 0.00035262,
        "meta_mean_motion_ddot": 0,
        "tle_line1": "1 33960U 97051BV  25337.32449059  .00035262  00000+0  41779-2 0  9996",
        "tle_line2": "2 33960  86.2527 293.9503 0007026  74.7434  54.2273 14.84371452887272"
      },
      "geometry": {
        "type": "Point",
        "coordinates": [
          115.76167706738121,
          -29.257918929274382
        ]
      }
    },
    {
      "type": "Feature",
      "properties": {
        "norad_id": 33966,
        "name": "IRIDIUM 33 DEB",
        "group": "iridium-33-debris",
        "lat": -25.704425535917775,
        "lon": -128.45970541046125,
        "alt_km": 728.5341321783899,
        "timestamp": "2025-12-03T22:42:33.017695+00:00",
        "meta_object_name": "IRIDIUM 33 DEB",
        "meta_object_id": "1997-051CB",
        "meta_epoch": "2025-12-03T05:26:31.517952",
        "meta_mean_motion": 14.49526909,
        "meta_eccentricity": 0.000637,
        "meta_inclination": 86.3933,
        "meta_ra_of_asc_node": 50.109,
        "meta_arg_of_pericenter": 222.6841,
        "meta_mean_anomaly": 191.0152,
        "meta_ephemeris_type": 0,
        "meta_classification_type": "U",
        "meta_norad_cat_id": 33966,
        "meta_element_set_no": 999,
        "meta_rev_at_epoch": 88304,
        "meta_bstar": 0.00087232,
        "meta_mean_motion_dot": 3.363e-05,
        "meta_mean_motion_ddot": 0,
        "tle_line1": "1 33966U 97051CB  25337.22675368  .00003363  00000+0  87232-3 0  9997",
        "tle_line2": "2 33966  86.3933  50.1090 0006370 222.6841 191.0152 14.49526909883048"
      },
      "geometry": {
        "type": "Point",
        "coordinates": [
          -128.45970541046125,
          -25.704425535917775
        ]
      }
    },
    {
      "type": "Feature",
      "properties": {
        "norad_id": 34071,
        "name": "IRIDIUM 33 DEB",
        "group": "iridium-33-debris",
        "lat": -82.78560867704168,
        "lon": -8.6626168267223,
        "alt_km": 740.5934879479264,
        "timestamp": "2025-12-03T22:42:33.017705+00:00",
        "meta_object_name": "IRIDIUM 33 DEB",
        "meta_object_id": "1997-051CE",
        "meta_epoch": "2025-12-03T11:29:50.811648",
        "meta_mean_motion": 14.49396054,
        "meta_eccentricity": 0.0009487,
        "meta_inclination": 86.3467,
        "meta_ra_of_asc_node": 21.8534,
        "meta_arg_of_pericenter": 132.6623,
        "meta_mean_anomaly": 227.5382,
        "meta_ephemeris_type": 0,
        "meta_classification_type": "U",
        "meta_norad_cat_id": 34071,
        "meta_element_set_no": 999,
        "meta_rev_at_epoch": 88200,
        "meta_bstar": 0.00091118,
        "meta_mean_motion_dot": 3.504e-05,
        "meta_mean_motion_ddot": 0,
        "tle_line1": "1 34071U 97051CE  25337.47906032  .00003504  00000+0  91118-3 0  9992",
        "tle_line2": "2 34071  86.3467  21.8534 0009487 132.6623 227.5382 14.49396054882007"
      },
      "geometry": {
        "type": "Point",
        "coordinates": [
          -8.6626168267223,
          -82.78560867704168
        ]
      }
    },
    {
      "type": "Feature",
      "properties": {
        "norad_id": 34077,
        "name": "IRIDIUM 33 DEB",
        "group": "iridium-33-debris",
        "lat": -5.2468102308908104,
        "lon": 55.04768102599215,
        "alt_km": 679.739152249821,
        "timestamp": "2025-12-03T22:42:33.017714+00:00",
        "meta_object_name": "IRIDIUM 33 DEB",
        "meta_object_id": "1997-051CL",
        "meta_epoch": "2025-12-03T04:49:49.513728",
        "meta_mean_motion": 14.64572021,
        "meta_eccentricity": 0.00109608,
        "meta_inclination": 86.3873,
        "meta_ra_of_asc_node": 55.7079,
        "meta_arg_of_pericenter": 69.3732,
        "meta_mean_anomaly": 320.4311,
        "meta_ephemeris_type": 0,
        "meta_classification_type": "U",
        "meta_norad_cat_id": 34077,
        "meta_element_set_no": 999,
        "meta_rev_at_epoch": 88193,
        "meta_bstar": 0.0022894081,
        "meta_mean_motion_dot": 0.0001219,
        "meta_mean_motion_ddot": 0,
        "tle_line1": "1 34077U 97051CL  25337.20126752  .00012190  00000+0  22894-2 0  9997",
        "tle_line2": "2 34077  86.3873  55.7079 0010960  69.3732 320.4311 14.64572021881932"
      },
      "geometry": {
        "type": "Point",
        "coordinates": [
          55.04768102599215,
          -5.2468102308908104
        ]
      }
    }
  ]
}